[{"OBJECT_NAME":"KANOPUS-V-IK","OBJECT_ID":"2017-042A","EPOCH":"2026-03-09T19:17:12.916608","MEAN_MOTION":15.22854595,"ECCENTRICITY":0.00016151,"INCLINATION":97.364,"RA_OF_ASC_NODE":336.3354,"ARG_OF_PERICENTER":87.4516,"MEAN_ANOMALY":272.6906,"EPHEMERIS_TYPE":0,"CLASSIFICATION_TYPE":"U","NORAD_CAT_ID":42825,"ELEMENT_SET_NO":999,"REV_AT_EPOCH":48024,"BSTAR":0.00016848135,"MEAN_MOTION_DOT":3.875e-5,"MEAN_MOTION_DDOT":0},{"OBJECT_NAME":"SEAHAWK-1","OBJECT_ID":"2018-099BQ","EPOCH":"2026-03-09T17:26:19.455648","MEAN_MOTION":15.21024633,"ECCENTRICITY":0.00069788,"INCLINATION":97.4094,"RA_OF_ASC_NODE":122.7887,"ARG_OF_PERICENTER":302.9769,"MEAN_ANOMALY":57.0796,"EPHEMERIS_TYPE":0,"CLASSIFICATION_TYPE":"U","NORAD_CAT_ID":43820,"ELEMENT_SET_NO":999,"REV_AT_EPOCH":39740,"BSTAR":0.00046242233,"MEAN_MOTION_DOT":0.00010205,"MEAN_MOTION_DDOT":0}]
